OBJECT_NAME,OBJECT_ID,EPOCH,MEAN_MOTION,ECCENTRICITY,INCLINATION,RA_OF_ASC_NODE,ARG_OF_PERICENTER,MEAN_ANOMALY,EPHEMERIS_TYPE,CLASSIFICATION_TYPE,NORAD_CAT_ID,ELEMENT_SET_NO,REV_AT_EPOCH,BSTAR,MEAN_MOTION_DOT,MEAN_MOTION_DDOT
KUIPER-00641,2026-151AA,2026-07-20T22:00:01.999584,15.34163345,.00121889,51.8686,153.0010,183.6220,89.5041,0,U,69787,999,352,.10392126E-4,-.35E-6,0
KUIPER-00644,2026-151AB,2026-07-20T22:00:01.999584,15.36578868,.00082605,51.8748,152.8342,178.5113,180.1854,0,U,69788,999,382,.13661082E-3,.457E-4,0
KUIPER-00646,2026-151AC,2026-07-20T22:08:53.275776,15.35321629,.00094168,51.8706,152.8675,183.3361,176.7564,0,U,69789,999,289,.34412436E-3,.11633E-3,0
KUIPER-00647,2026-151AD,2026-07-20T22:17:22.551072,15.34651372,.00108395,51.8671,152.9002,186.3254,173.7596,0,U,69790,999,289,.27484878E-3,.9013E-4,0
KUIPER-00662,2026-151AE,2026-07-20T22:00:23.614272,15.36578088,.00083273,51.8745,152.8325,178.4752,181.6261,0,U,69791,999,289,.37319467E-3,.13179E-3,0
LINK,2026-152A,2026-07-20T09:39:26.591040,15.68187366,.0023629,20.5937,287.2749,64.9412,295.3485,0,U,69792,999,267,.64774E-3,.785E-3,0
2026-152B,2026-152B,2026-07-20T11:37:12.678528,15.65147193,.00230942,20.5974,286.9874,65.9670,294.3191,0,U,69793,999,268,.33676712E-3,.36326E-3,0
ISS OBJECT YJ,1998-067YJ,2026-07-20T22:00:11.456064,15.50262489,.00077195,51.6313,133.0509,331.5565,28.5001,0,U,69794,999,288,.41832582E-3,.23734E-3,0
ISS OBJECT YK,1998-067YK,2026-07-20T20:17:55.201056,15.51115922,.00064714,51.6309,133.3277,338.1421,21.9291,0,U,69795,999,287,.71908729E-3,.42494E-3,0
ISS OBJECT YL,1998-067YL,2026-07-20T12:36:47.562336,15.50765437,.00085941,51.6316,134.9389,331.0854,28.9658,0,U,69796,999,281,.49852731E-3,.28917E-3,0
ISS OBJECT YM,1998-067YM,2026-07-19T02:34:42.199104,15.50730438,.00095402,51.6313,141.9694,317.3157,42.7090,0,U,69797,999,258,.48640602E-3,.28173E-3,0
ISS OBJECT YN,1998-067YN,2026-07-20T12:38:26.990592,15.50509087,.00091388,51.6317,134.9466,334.2509,25.8024,0,U,69798,999,282,.34427759E-3,.19623E-3,0
PROVES-ELECTRA,1998-067YP,2026-07-20T12:36:08.903520,15.50798649,.00096527,51.6313,134.9353,322.1156,37.9153,0,U,69799,999,281,.48693176E-3,.28275E-3,0
QIANFAN-201,2026-153A,2026-07-20T22:22:53.976288,14.22094203,.00084213,88.9929,358.3870,158.5346,201.6200,0,U,69800,999,236,.25872879E-4,.72E-6,0
QIANFAN-202,2026-153B,2026-07-20T21:28:25.123008,14.18844586,.0007348,88.9929,358.3994,157.9166,202.2342,0,U,69801,999,235,.74375069E-4,.169E-5,0
QIANFAN-203,2026-153C,2026-07-20T14:25:43.122720,14.14863114,.00095801,88.9924,358.4301,173.6334,186.4977,0,U,69802,999,231,-.98893592E+0,-.1764202E-1,0
QIANFAN-204,2026-153D,2026-07-20T21:19:03.031392,14.20115043,.00083269,88.9929,358.3984,161.0633,199.0868,0,U,69803,999,235,.43168483E-4,.106E-5,0
QIANFAN-205,2026-153E,2026-07-20T21:13:41.299392,14.18677304,.00087877,88.9914,358.3944,169.7444,190.3926,0,U,69804,999,235,.27513669E-4,.71E-6,0
QIANFAN-206,2026-153F,2026-07-20T20:54:48.795840,14.19740763,.00094507,88.9908,358.3931,162.3221,197.8299,0,U,69805,999,235,.26479119E-4,.71E-6,0
QIANFAN-207,2026-153G,2026-07-20T22:32:08.762784,14.20766687,.00078899,88.9934,358.3870,158.3331,201.8195,0,U,69806,999,236,.25481841E-4,.69E-6,0
QIANFAN-208,2026-153H,2026-07-20T20:42:00.012096,14.23213695,.00117831,88.9946,358.4137,163.3646,196.7935,0,U,69807,999,235,.26955044E-4,.76E-6,0
QIANFAN-209,2026-153J,2026-07-20T22:39:22.254048,14.19690654,.00083381,88.9927,358.3899,158.0370,202.1179,0,U,69808,999,236,.26169711E-4,.7E-6,0
QIANFAN-210,2026-153K,2026-07-20T20:51:02.733696,14.20411043,.00076282,88.9936,358.3931,150.9177,209.2439,0,U,69809,999,235,.25919118E-4,.7E-6,0
QIANFAN-211,2026-153L,2026-07-20T20:50:01.385376,14.20317751,.00072421,88.9943,358.3928,157.7867,202.3638,0,U,69810,999,235,.25739663E-4,.7E-6,0
QIANFAN-212,2026-153M,2026-07-20T20:41:48.975360,14.21342685,.00111051,88.9946,358.4130,164.2291,195.9248,0,U,69811,999,235,.26358035E-4,.72E-6,0
QIANFAN-213,2026-153N,2026-07-17T21:48:21.510720,14.21939575,.00078274,88.9917,358.7338,155.5754,204.5809,0,U,69812,999,193,-.9822754E+0,-.2004805E-1,0
QIANFAN-214,2026-153P,2026-07-20T22:13:39.642528,14.25491881,.00085553,88.9928,358.3852,164.5042,195.6415,0,U,69813,999,236,.2783351E-4,.8E-6,0
QIANFAN-215,2026-153Q,2026-07-20T22:11:31.443936,14.26679842,.00085612,88.9927,358.3848,166.4084,193.7342,0,U,69814,999,236,.2825206E-4,.83E-6,0
QIANFAN-216,2026-153R,2026-07-20T20:30:30.197952,14.26676566,.00087785,88.9928,358.3932,166.8673,193.2751,0,U,69815,999,235,.28394599E-4,.83E-6,0
QIANFAN-217,2026-153S,2026-07-20T22:10:36.585120,14.26768420,.00083014,88.9927,358.3847,164.1397,196.0059,0,U,69816,999,236,.24438952E-4,.74E-6,0
QIANFAN-218,2026-153T,2026-07-20T22:09:54.616320,14.26812013,.00080689,88.9930,358.3853,161.5760,198.5728,0,U,69817,999,236,.61877167E-4,.165E-5,0
CZ-6A R/B,2026-153U,2026-07-20T21:31:50.336832,14.53450507,.00868822,89.0170,358.3047,67.9741,293.0669,0,U,69818,999,240,.48031839E-4,.229E-5,0
STARLINK-37520,2026-154A,2026-07-20T15:09:45.552672,15.80925087,.00023409,53.1579,265.7058,26.5616,333.5526,0,U,69819,999,367,.90929441E-3,.18307E-2,0
STARLINK-37553,2026-154B,2026-07-20T15:08:40.650720,15.80921917,.00024135,53.1576,265.7001,28.5394,331.5761,0,U,69820,999,367,.78475464E-3,.157407E-2,0
STARLINK-37561,2026-154C,2026-07-20T15:07:36.087456,15.80922000,.00029438,53.1578,265.6953,25.5849,334.5319,0,U,69821,999,367,.93156913E-3,.187659E-2,0
STARLINK-37521,2026-154D,2026-07-20T15:06:30.773376,15.80914210,.00012942,53.1576,265.6901,102.7861,257.3306,0,U,69822,999,367,.90983266E-3,.183077E-2,0
STARLINK-37628,2026-154E,2026-07-20T21:09:34.554816,15.80942509,.00015468,53.1578,264.4178,72.1481,287.9711,0,U,69823,999,371,.12751197E-2,.259507E-2,0
STARLINK-37695,2026-154F,2026-07-20T20:59:34.250208,15.80927555,.00010771,53.1579,264.3710,82.3649,277.7496,0,U,69824,999,371,.75393747E-3,.151115E-2,0
STARLINK-37690,2026-154G,2026-07-20T21:07:24.820032,15.80922704,.00012257,53.1579,264.4082,83.8451,276.2711,0,U,69825,999,371,.7019198E-3,.140434E-2,0
STARLINK-37710,2026-154H,2026-07-20T16:33:12.249504,15.81021162,.00011743,53.1580,265.3530,35.2473,324.8627,0,U,69826,999,368,.99882444E-3,.202507E-2,0
STARLINK-38031,2026-154J,2026-07-20T16:32:08.591712,15.80929303,.0001078,53.1581,265.3479,104.5528,255.5615,0,U,69827,999,368,.78629644E-3,.157766E-2,0
STARLINK-38001,2026-154K,2026-07-20T16:31:03.742464,15.80930402,.00010508,53.1582,265.3432,108.8086,251.3051,0,U,69828,999,368,.79951491E-3,.160489E-2,0
STARLINK-37622,2026-154L,2026-07-20T14:58:57.086112,15.80918107,.0001181,53.1577,265.6556,84.0964,276.0193,0,U,69829,999,367,.86456004E-3,.173774E-2,0
STARLINK-37621,2026-154M,2026-07-20T21:02:00.734496,15.80946170,.00012819,53.1577,264.3825,65.5576,294.5580,0,U,69830,999,371,.11421622E-2,.231657E-2,0
STARLINK-37918,2026-154N,2026-07-20T21:00:56.183328,15.80953530,.00015482,53.1577,264.3779,67.2109,292.9077,0,U,69831,999,371,.12079966E-2,.245533E-2,0
STARLINK-37887,2026-154P,2026-07-20T20:59:51.077472,15.80940235,.00012025,53.1578,264.3719,71.0623,289.0530,0,U,69832,999,371,.90814627E-3,.182953E-2,0
STARLINK-37624,2026-154Q,2026-07-20T16:25:39.827136,15.80945723,.00012063,53.1577,265.3175,95.0124,265.1037,0,U,69833,999,368,.93654823E-3,.188876E-2,0
STARLINK-37769,2026-154R,2026-07-20T14:53:32.821728,15.80922924,.00015576,53.1577,265.6291,121.4157,238.7018,0,U,69834,999,367,.883555E-3,.177731E-2,0
STARLINK-37247,2026-154S,2026-07-20T14:52:27.984576,15.80918327,.0001369,53.1575,265.6244,124.5328,235.5824,0,U,69835,999,367,.86841E-3,.174569E-2,0
STARLINK-37569,2026-154T,2026-07-20T10:18:16.731648,15.80936433,.00009771,53.1581,266.5700,75.4821,284.6310,0,U,69836,999,364,.78079383E-3,.156689E-2,0
STARLINK-37587,2026-154U,2026-07-20T14:50:19.245120,15.80916545,.00037977,53.1581,265.6137,13.3153,346.7970,0,U,69837,999,367,.81995266E-3,.164631E-2,0
STARLINK-37590,2026-154V,2026-07-20T16:20:15.285408,15.80930141,.0002854,53.1579,265.2916,154.7653,205.3510,0,U,69838,999,368,.73204246E-3,.146667E-2,0
STARLINK-37589,2026-154W,2026-07-20T14:48:09.200160,15.80919727,.00018802,53.1572,265.6038,56.8016,303.3187,0,U,69839,999,367,.83883263E-3,.168495E-2,0
STARLINK-37487,2026-154X,2026-07-20T22:00:01.999584,15.80896139,.00009919,53.1586,263.6191,88.5822,51.0832,0,U,69840,999,356,-.42204619E-3,-.83286E-3,0
STARLINK-37433,2026-154Y,2026-07-20T22:00:01.999584,15.80894666,.00010118,53.1590,263.6201,89.4816,49.5447,0,U,69841,999,369,-.39511287E-3,-.78057E-3,0
STARLINK-37588,2026-154Z,2026-07-20T22:00:01.999584,15.80888324,.00011386,53.1586,263.5846,85.8801,70.3320,0,U,69842,999,359,-.32540914E-3,-.64492E-3,0
STARLINK-37579,2026-154AA,2026-07-20T22:00:01.999584,15.80896646,.00009024,53.1589,263.5875,93.2260,61.3963,0,U,69843,999,359,-.32068411E-3,-.63595E-3,0
STARLINK-37584,2026-154AB,2026-07-20T22:00:01.999584,15.80887261,.00011998,53.1590,263.5801,71.5623,86.8892,0,U,69844,999,359,-.33899462E-3,-.67133E-3,0
STARLINK-37606,2026-154AC,2026-07-20T22:00:01.999584,15.80886685,.00008627,53.1588,263.5681,93.5132,70.1020,0,U,69845,999,359,-.34947926E-3,-.69166E-3,0
STARLINK-37603,2026-154AD,2026-07-20T22:00:01.999584,15.80885741,.00009569,53.1590,263.5611,91.1116,75.8452,0,U,69846,999,359,-.36374964E-3,-.71937E-3,0
STARLINK-37595,2026-154AE,2026-07-20T22:00:01.999584,15.80908009,.00009888,53.1591,263.5499,85.9227,86.2250,0,U,69847,999,359,-.45183349E-3,-.89104E-3,0
QIANFAN-219,2026-155A,2026-07-20T21:44:03.683616,14.20028285,.00353415,89.0058,60.2960,206.2304,153.7098,0,U,69848,999,219,-.89429909E+0,-.1766329E-1,0
QIANFAN-220,2026-155B,2026-07-20T20:55:12.415872,14.17598036,.00299292,89.0062,60.3090,203.1299,156.8544,0,U,69849,999,218,.15450483E-4,.46E-6,0
QIANFAN-221,2026-155C,2026-07-20T21:42:44.568864,14.26648875,.00309273,89.0062,60.2955,204.0277,155.9476,0,U,69850,999,219,.92778075E-4,.24E-5,0
